*******************************************************************************
 Revised: Jul 31, 2013              Venus                               299 / 2
 
 GEOPHYSICAL DATA (updated 2014-Mar-13):
  Mean radius (km)      =   6051.8(4+-1)  Density (g cm^-3)     =  5.204 
  Mass (10^23 kg )      =     48.685      Flattening, f         =  
  Volume (x10^10 km^3)  =     92.843      Semi-major axis       =  
  Sidereal rot. period  =   -243.0185 d   Rot. Rate (x10^5 s)   = -0.029924 
  Mean solar day        =    116.7490 d   Polar gravity ms^-2   =   
  Mom. of Inertia       =      0.33       Equ. gravity  ms^-2   =  8.870 
  Core radius (km)      =  ~3200          Potential Love # k2   = ~0.25 

  Grav spectral fact u  =      1.5        Topo. spectral fact t =  23       
  Fig. offset (Rcf-Rcm) =      0.19+-01   Offset (lat./long.)   = 11/102 dg/dg 
  GM (km^3 s^-2)        = 324858.63       Equatorial Radius, Re = 6051.893 km 
  GM 1-sigma (km^3 s^-2)=    +-0.04       Mass ratio (Sun/Venus)= 408523.72
  
  Atmos. pressure (bar) =    90           Max. angular diam.    =   60.2" 
  Mean Temperature (K)  =  735            Visual mag. V(1,0)    =   -4.40 
  Geometric albedo      =    0.65         Obliquity to orbit    =  177.3 deg 
  Sidereal orb. per.    =    0.61519726 y Orbit vel.  km/s      =   35.0214 
  Sidereal orb. per.    =  224.70079922 d Escape vel. km/s      =   10.361 
  Hill's sphere rad. Rp =  167.1          Planetary Solar Const = 2613.9 (Wm^2) 
*******************************************************************************
 
 
*******************************************************************************
Ephemeris / WWW_USER Sun Jan 18 02:25:06 2015 Pasadena, USA      / Horizons    
*******************************************************************************
Target body name: Venus (299)                     {source: DE-0431LE-0431}
Center body name: Solar System Barycenter (0)     {source: DE-0431LE-0431}
Center-site name: BODY CENTER
*******************************************************************************
Start time      : A.D. 2015-Jan-18 00:00:00.0000 CT 
Stop  time      : A.D. 2015-Feb-17 00:00:00.0000 CT 
Step-size       : 1440 minutes
*******************************************************************************
Center geodetic : 0.00000000,0.00000000,0.0000000 {E-lon(deg),Lat(deg),Alt(km)}
Center cylindric: 0.00000000,0.00000000,0.0000000 {E-lon(deg),Dxy(km),Dz(km)}
Center radii    : (undefined)                                                  
Output units    : AU-D                                                         
Output format   : 02
Reference frame : ICRF/J2000.0                                                 
Output type     : LT+S CORRECTED cartesian states
Coordinate systm: Ecliptic and Mean Equinox of Reference Epoch                 
*******************************************************************************
JDCT ,   , X, Y, Z, VX, VY, VZ,
*******************************************************************************
$$SOE
2457040.500000000, A.D. 2015-Jan-18 00:00:00.0000,  7.075088829150125E-01, -1.759644371817919E-01, -4.320190225092103E-02,  4.781352469919346E-03,  1.954433958417331E-02, -8.005284366507023E-06,
2457041.500000000, A.D. 2015-Jan-19 00:00:00.0000,  7.120186666312519E-01, -1.563552179569925E-01, -4.319334648625048E-02,  4.237603481801494E-03,  1.967157467087723E-02,  2.511750561901668E-05,
2457042.500000000, A.D. 2015-Jan-20 00:00:00.0000,  7.159829474590061E-01, -1.366262990066839E-01, -4.315166999358308E-02,  3.690415389919739E-03,  1.978372100646070E-02,  5.823196005914984E-05,
2457043.500000000, A.D. 2015-Jan-21 00:00:00.0000,  7.193984920423555E-01, -1.167928176002895E-01, -4.307689364704820E-02,  3.140200247690655E-03,  1.988068339607307E-02,  9.131299484440784E-05,
2457044.500000000, A.D. 2015-Jan-22 00:00:00.0000,  7.222624805004075E-01, -9.687000070807336E-02, -4.296906341161987E-02,  2.587372904951733E-03,  1.996237765218777E-02,  1.243355153602006E-04,
2457045.500000000, A.D. 2015-Jan-23 00:00:00.0000,  7.245725090854823E-01, -7.687315394818306E-02, -4.282825034501983E-02,  2.032350730715785E-03,  2.002873068470976E-02,  1.572744337194586E-04,
2457046.500000000, A.D. 2015-Jan-24 00:00:00.0000,  7.263265925623820E-01, -5.681765044672007E-02, -4.265455058233467E-02,  1.475553332631643E-03,  2.007968058497374E-02,  1.901046861018425E-04,
2457047.500000000, A.D. 2015-Jan-25 00:00:00.0000,  7.275231663055168E-01, -3.671891961678029E-02, -4.244808530324168E-02,  9.174022732231208E-04,  2.011517670349489E-02,  2.228012501934618E-04,
2457048.500000000, A.D. 2015-Jan-26 00:00:00.0000,  7.281610881106784E-01, -1.659243586311545E-02, -4.220900068174915E-02,  3.583207830012448E-04,  2.013517972133078E-02,  2.553391627196543E-04,
2457049.500000000, A.D. 2015-Jan-27 00:00:00.0000,  7.282396397184071E-01,  3.546292781471382E-03, -4.193746781835875E-02, -2.012665294668621E-04,  2.013966171491343E-02,  2.876935370641490E-04,
2457050.500000000, A.D. 2015-Jan-28 00:00:00.0000,  7.277585280459450E-01,  2.368173608117320E-02, -4.163368265456942E-02, -7.609339704260580E-04,  2.012860621420825E-02,  3.198395809664304E-04,
2457051.500000000, A.D. 2015-Jan-29 00:00:00.0000,  7.267178861248901E-01,  4.379835307706265E-02, -4.129786586964677E-02, -1.320255056634584E-03,  2.010200825405526E-02,  3.517526142893826E-04,
2457052.500000000, A.D. 2015-Jan-30 00:00:00.0000,  7.251182737417826E-01,  6.388060361472679E-02, -4.093026275959512E-02, -1.878802813778662E-03,  2.005987441854726E-02,  3.834080868482567E-04,
2457053.500000000, A.D. 2015-Jan-31 00:00:00.0000,  7.229606777789656E-01,  8.391295991283919E-02, -4.053114309827192E-02, -2.436150077484496E-03,  2.000222287829789E-02,  4.147815962922450E-04,
2457054.500000000, A.D. 2015-Feb-01 00:00:00.0000,  7.202465122531737E-01,  1.038799181654418E-01, -4.010080098059669E-02, -2.991869796797295E-03,  1.992908342045081E-02,  4.458489060291136E-04,
2457055.500000000, A.D. 2015-Feb-02 00:00:00.0000,  7.169776180494901E-01,  1.237660101703420E-01, -3.963955464782196E-02, -3.545535339983562E-03,  1.984049747128166E-02,  4.765859631825194E-04,
2457056.500000000, A.D. 2015-Feb-03 00:00:00.0000,  7.131562623483588E-01,  1.435558149765964E-01, -3.914774629482923E-02, -4.096720802525633E-03,  1.973651811124014E-02,  5.069689165723492E-04,
2457057.500000000, A.D. 2015-Feb-04 00:00:00.0000,  7.087851377436046E-01,  1.632339705430117E-01, -3.862574185944199E-02, -4.645001317127267E-03,  1.961721008230588E-02,  5.369741347057803E-04,
2457058.500000000, A.D. 2015-Feb-05 00:00:00.0000,  7.038673610494727E-01,  1.827851854002102E-01, -3.807393079374351E-02, -5.189953365603053E-03,  1.948264978748452E-02,  5.665782237695058E-04,
2457059.500000000, A.D. 2015-Feb-06 00:00:00.0000,  6.984064717949227E-01,  2.021942503081587E-01, -3.749272581740806E-02, -5.731155092446730E-03,  1.933292528230159E-02,  5.957580456091804E-04,
2457060.500000000, A.D. 2015-Feb-07 00:00:00.0000,  6.924064304035839E-01,  2.214460499011288E-01, -3.688256265306408E-02, -6.268186619920580E-03,  1.916813625819166E-02,  6.244907356855616E-04,
2457061.500000000, A.D. 2015-Feb-08 00:00:00.0000,  6.858716160579185E-01,  2.405255743119840E-01, -3.624389974371615E-02, -6.800630364465180E-03,  1.898839401758610E-02,  6.527537209930984E-04,
2457062.500000000, A.D. 2015-Feb-09 00:00:00.0000,  6.788068242464206E-01,  2.594179307672736E-01, -3.557721795227514E-02, -7.328071354231733E-03,  1.879382144059711E-02,  6.805247379281422E-04,
2457063.500000000, A.D. 2015-Feb-10 00:00:00.0000,  6.712172639927796E-01,  2.781083551448189E-01, -3.488302024324868E-02, -7.850097547532776E-03,  1.858455294315830E-02,  7.077818500930124E-04,
2457064.500000000, A.D. 2015-Feb-11 00:00:00.0000,  6.631085547662015E-01,  2.965822234851523E-01, -3.416183134666340E-02, -8.366300151992606E-03,  1.836073442648972E-02,  7.345034660215620E-04,
2457065.500000000, A.D. 2015-Feb-12 00:00:00.0000,  6.544867230723957E-01,  3.148250634478545E-01, -3.341419740431403E-02, -8.876273944164395E-03,  1.812252321776441E-02,  7.606683568110394E-04,
2457066.500000000, A.D. 2015-Feb-13 00:00:00.0000,  6.453581987246848E-01,  3.328225657043759E-01, -3.264068559842257E-02, -9.379617589390479E-03,  1.787008800185184E-02,  7.862556736456561E-04,
2457067.500000000, A.D. 2015-Feb-14 00:00:00.0000,  6.357298107953596E-01,  3.505605952578184E-01, -3.184188376284589E-02, -9.875933961645388E-03,  1.760360874403185E-02,  8.112449651953789E-04,
2457068.500000000, A.D. 2015-Feb-15 00:00:00.0000,  6.256087832471809E-01,  3.680252026811072E-01, -3.101839997694296E-02, -1.036483046312167E-02,  1.732327660356599E-02,  8.356161948745464E-04,
2457069.500000000, A.D. 2015-Feb-16 00:00:00.0000,  6.150027302456130E-01,  3.852026352639622E-01, -3.017086214226740E-02, -1.084591934328409E-02,  1.702929383803122E-02,  8.593497579431775E-04,
2457070.500000000, A.D. 2015-Feb-17 00:00:00.0000,  6.039196511523355E-01,  4.020793480596177E-01, -2.929991754224059E-02, -1.131881801712616E-02,  1.672187369831890E-02,  8.824264984342827E-04,
$$EOE
*******************************************************************************
Coordinate system description:

  Ecliptic and Mean Equinox of Reference Epoch

    Reference epoch: J2000.0
    xy-plane: plane of the Earth's orbit at the reference epoch
    x-axis  : out along ascending node of instantaneous plane of the Earth's
              orbit and the Earth's mean equator at the reference epoch
    z-axis  : perpendicular to the xy-plane in the directional (+ or -) sense
              of Earth's north pole at the reference epoch.

Symbol meaning [1 au=149597870.700 km, 1 day=86400.0 s]:

    JDCT     Epoch Julian Date, Coordinate Time
      X      x-component of position vector (AU)                               
      Y      y-component of position vector (AU)                               
      Z      z-component of position vector (AU)                               
      VX     x-component of velocity vector (AU/day)                           
      VY     y-component of velocity vector (AU/day)                           
      VZ     z-component of velocity vector (AU/day)                           

States have been corrected for Newtonian light-time and relativistic stellar ab

 Computations by ...
     Solar System Dynamics Group, Horizons On-Line Ephemeris System
     4800 Oak Grove Drive, Jet Propulsion Laboratory
     Pasadena, CA  91109   USA
     Information: http://ssd.jpl.nasa.gov/
     Connect    : telnet://ssd.jpl.nasa.gov:6775  (via browser)
                  telnet ssd.jpl.nasa.gov 6775    (via command-line)
     Author     : Jon.Giorgini@jpl.nasa.gov
*******************************************************************************
